{
  "norad_id": 46723,
  "name": "STARLINK-1826",
  "history": [
    {
      "epoch": "2026-03-28T22:00:01.999584Z",
      "apogee_km": 376.3412486805246,
      "perigee_km": 372.83320844378704,
      "latitude_deg": 6.274786561851727,
      "longitude_deg": 105.42353838924855,
      "height_km": 376.16929802182136,
      "semi_major_axis_km": 6752.724228562156,
      "eccentricity": 0.00025975,
      "inclination_deg": 53.0453,
      "raan_deg": 86.4805,
      "arg_perigee_deg": 308.9065,
      "mean_anomaly_deg": 223.2008,
      "mean_motion_rev_day": 15.64531245
    },
    {
      "epoch": "2026-03-29T04:55:59.761920Z",
      "apogee_km": 375.8393706986226,
      "perigee_km": 372.6846498810146,
      "latitude_deg": 4.035786617109724e-06,
      "longitude_deg": -175.5535879030206,
      "height_km": 374.2493289755434,
      "semi_major_axis_km": 6752.399010289818,
      "eccentricity": 0.0002336,
      "inclination_deg": 53.0459,
      "raan_deg": 85.0604,
      "arg_perigee_deg": 305.4728,
      "mean_anomaly_deg": 54.6068,
      "mean_motion_rev_day": 15.64644276
    },
    {
      "epoch": "2026-03-30T00:00:01.999296Z",
      "apogee_km": 375.2575883215477,
      "perigee_km": 372.0261869459255,
      "latitude_deg": 17.485563723690305,
      "longitude_deg": 60.128821174720656,
      "height_km": 375.44381888914796,
      "semi_major_axis_km": 6751.778887633736,
      "eccentricity": 0.0002393,
      "inclination_deg": 53.0459,
      "raan_deg": 81.1659,
      "arg_perigee_deg": 317.0504,
      "mean_anomaly_deg": 200.9102,
      "mean_motion_rev_day": 15.6485984
    },
    {
      "epoch": "2026-03-30T05:27:34.239168Z",
      "apogee_km": 375.19555322933047,
      "perigee_km": 371.9687716072285,
      "latitude_deg": 1.9411172909597174e-05,
      "longitude_deg": 170.53511202848665,
      "height_km": 373.2911875300772,
      "semi_major_axis_km": 6751.71916241828,
      "eccentricity": 0.00023896,
      "inclination_deg": 53.0469,
      "raan_deg": 80.05,
      "arg_perigee_deg": 317.7142,
      "mean_anomaly_deg": 42.3688,
      "mean_motion_rev_day": 15.64880604
    }
  ]
}